XRISM                   
1 57800U 23137A   24042.55797507  .00008292  00000+0  65191-3 0  9998
2 57800  31.0039  97.6151 0009746  35.3581 324.7699 14.99551141 23654
